ONEWEB-0120             
1 47266U 20100J   24130.53022681 -.00000399  00000+0 -11441-2 0  9990
2 47266  87.8936 143.7049 0002135  92.5145 267.6228 13.12444073163904
ONEWEB-0121             
1 47267U 20100K   24130.74768184 -.00000317  00000+0 -91728-3 0  9996
2 47267  87.8930 143.6548 0001976  95.7620 264.3734 13.12443925163841
ONEWEB-0122             
1 47268U 20100L   24130.59030704 -.00000229  00000+0 -67316-3 0  9998
2 47268  87.8928 143.6907 0002161  93.0497 267.0879 13.12440056163738
ONEWEB-0123             
1 47269U 20100M   24130.73815911 -.00000001  00000+0 -39100-4 0  9995
2 47269  87.8931 143.6738 0002038  87.4291 272.7071 13.12443676163892
ONEWEB-0124             
1 47270U 20100N   24130.57457774  .00000270  00000+0  71432-3 0  9997
2 47270  87.8933 143.7026 0001904  99.4593 260.6751 13.12442715163755
ONEWEB-0125             
1 47271U 20100P   24130.54915974  .00000136  00000+0  34281-3 0  9998
2 47271  87.8934 143.6658 0001708  85.5333 274.5990 13.12442488163810
ONEWEB-0126             
1 47272U 20100Q   24130.57692433  .00000190  00000+0  49405-3 0  9998
2 47272  87.8931 143.6687 0002174  89.6846 270.4532 13.12444389163888
ONEWEB-0127             
1 47273U 20100R   24130.53804336 -.00000213  00000+0 -62680-3 0  9990
2 47273  87.8933 143.7032 0002151  90.5238 269.6137 13.12444187163907
